CORVUS BC1              
1 42847U 17042Y   18169.52549088  .00000138  00000-0  19011-4 0  9993
2 42847  97.5974  72.4007 0009033 181.9396 178.1790 14.91919613 50563
SILU-1 (SILKROAD 1)     
1 42903U 17021F   18169.54292346  .00017908  00000-0  13695-3 0  9991
2 42903  42.7796 320.0060 0013648 308.7431  94.4329 15.71701886 50149
MIRATA                  
1 43015U 17073C   18169.37466621  .00000648  00000-0  57464-4 0  9999
2 43015  97.7043 100.3422 0256573 267.7032  89.4785 14.78145291 31313
MAKERSAT 0              
1 43016U 17073D   18169.29178319  .00000416  00000-0  38928-4 0  9992
2 43016  97.7072 100.3794 0257912 268.0082  89.1578 14.78156145 31301
ASTERIA                 
1 43020U 98067NH  18169.55456289  .00013455  00000-0  17372-3 0  9999
2 43020  51.6423   7.4819 0002817 164.8536 195.2542 15.59301465 32701
DELLINGR (RBLE)         
1 43021U 98067NJ  18169.15701400  .00006319  00000-0  90718-4 0  9991
2 43021  51.6399  10.8019 0002739 155.4444 204.6679 15.57545236 32622
OSIRIS-3U               
1 43027U 98067NL  18169.55680979  .00035659  00000-0  36858-3 0  9991
2 43027  51.6384   3.7081 0003774 157.9598 202.1560 15.64389183 32637
AEROCUBE 7B             
1 43042U 17071F   18169.09424427  .00002176  00000-0  65898-4 0  9992
2 43042  51.6399  37.0982 0004410 266.6552  93.3928 15.38855228 29741
AEROCUBE 7C             
1 43043U 17071G   18169.22412811  .00002618  00000-0  77214-4 0  9998
2 43043  51.6401  36.4694 0004453 270.1854  89.8620 15.38859086 29735
CHEFSAT                 
1 43044U 17071H   18169.10268121  .00004740  00000-0  12784-3 0  9997
2 43044  51.6405  36.4276 0004318 269.0560  90.9930 15.39733276 29726
ASGARDIA 1              
1 43049U 17071N   18169.07492181  .00001749  00000-0  54732-4 0  9999
2 43049  51.6403  36.9793 0001921 295.0332  65.0453 15.38990862 29718
ISARA                   
1 43050U 17071P   18169.23449953  .00004818  00000-0  13033-3 0  9996
2 43050  51.6399  35.8049 0001757 290.5062  69.5734 15.39600792 29748
FAUNA                   
1 43052U 17071R   18168.99842762  .00001885  00000-0  57937-4 0  9998
2 43052  51.6405  37.2267 0001813 291.2734  68.8056 15.39122500 29692
CORVUS BC3              
1 43118U 18004H   18169.39093068  .00000708  00000-0  33864-4 0  9996
2 43118  97.5330 231.9835 0012358  91.2604 269.0048 15.22250295 23892
MICROMAS-2A             
1 43131U 18004W   18169.41634373  .00001567  00000-0  70036-4 0  9990
2 43131  97.5338 232.1149 0011583  94.1481 266.1079 15.22804633 23905
GOMX4-B                 
1 43196U 18015E   18169.52278914  .00002331  00000-0  10000-3 0  9994
2 43196  97.3470 298.4230 0019977 148.5605 211.6899 15.23547762 20735
GOMX4-A                 
1 43197U 18015F   18169.59641468  .00000410  00000-0  19948-4 0  9997
2 43197  97.3478 298.4996 0020191 148.9362 269.4427 15.23659699 20750
UBAKUSAT                
1 43466U 98067NP  18169.03662778  .00007957  00000-0  12062-3 0  9999
2 43466  51.6430  14.1547 0001840 129.1526  30.0189 15.55627920  5834
1KUNS-PF                
1 43467U 98067NQ  18169.22051137  .00006455  00000-0  99463-4 0  9995
2 43467  51.6434  13.2342 0003868 127.3391 342.7851 15.55552489  5863
BATSU-CS1 (IRAZU)       
1 43468U 98067NR  18169.58415496  .00009387  00000-0  14021-3 0  9990
2 43468  51.6459  11.3886 0001700 125.2055 234.9089 15.55785525105900
